STARLINK-31654          
1 59858U 24098A   26068.89634882  .00001353  00000+0  58678-4 0  9997
2 59858  43.0009 269.4004 0000960 275.2408  84.8334 15.27576821101951
KUIPER-00204            
1 67145U 25301N   26068.39760395  .00020516  00000+0  79568-3 0  9999
2 67145  51.8870  71.6415 0003071 354.8934   5.2016 15.26088400 13737
